GLOBALSTAR M063         
1 26081U 00008A   24355.11560446 -.00000056  00000+0  38943-3 0  9992
2 26081  51.9932 223.1822 0004637 343.4135 185.3020 11.86167216136391
GLOBALSTAR M062         
1 26082U 00008B   24355.13044953  .00000023  00000+0  86745-3 0  9991
2 26082  51.9847 262.3311 0007678  86.1821  61.4028 12.43454807136847
GLOBALSTAR M060         
1 26083U 00008C   24354.96961646 -.00000038  00000+0  52482-3 0  9997
2 26083  51.9989 197.4569 0004457 109.8596  38.6339 12.17652270130538
GLOBALSTAR M064         
1 26084U 00008D   24354.84293315 -.00000042  00000+0  58769-3 0  9995
2 26084  52.0051 324.8411 0001828  65.2471 294.8552 11.88527321145779
GLOBALSTAR M065         
1 31571U 07020A   24355.14304149  .00000086  00000+0  10634-2 0  9990
2 31571  51.9910  51.2152 0009847 266.9121 110.5989 12.61986911811103
GLOBALSTAR M069         
1 31573U 07020C   24354.58341006 -.00000072  00000+0  18228-3 0  9996
2 31573  51.9970  12.5298 0000581 129.2382  22.9066 12.53307167811796
GLOBALSTAR M072         
1 31574U 07020D   24352.70849559 -.00000103  00000+0 -56356-4 0  9996
2 31574  52.0075 116.7490 0001064 111.4839  26.3467 12.34773486809793
GLOBALSTAR M071         
1 31576U 07020F   24354.60034977 -.00000071  00000+0  19503-3 0  9994
2 31576  52.0083  15.4764 0001605  55.3402  93.9795 12.31890690473027
